start=new Date('2021-12-26T00:00:00.000Z').valueOf();
sats=[{"REV_AT_EPOCH":"163","TLE_LINE1":"1 50172U 21125S   21359.91667824 -.00865364  24153-3 -20137-2 0  9996","ARG_OF_PERICENTER":"181.9658","ECCENTRICITY":"0.00449760","SEMIMAJOR_AXIS":"6667.957","MEAN_MOTION":"15.94459882","RA_OF_ASC_NODE":"329.9481","FILE":"3250974","EPOCH":"2021-12-25T22:00:00.999936","DECAY_DATE":null,"GP_ID":"192459036","PERIAPSIS":"259.832","OBJECT_ID":"2021-125S","BSTAR":"-0.00201370000000","RCS_SIZE":null,"INCLINATION":"53.2175","ELEMENT_SET_NO":"999","EPHEMERIS_TYPE":"0","APOAPSIS":"319.812","REF_FRAME":"TEME","MEAN_ELEMENT_THEORY":"SGP4","TIME_SYSTEM":"UTC","LAUNCH_DATE":"2021-12-18","MEAN_MOTION_DOT":"-0.00865364","MEAN_ANOMALY":"10.4901","NORAD_CAT_ID":"50172","CENTER_NAME":"EARTH","CLASSIFICATION_TYPE":"U","TLE_LINE2":"2 50172  53.2175 329.9481 0044976 181.9658  10.4901 15.94459882  1634","OBJECT_TYPE":"PAYLOAD","COUNTRY_CODE":"US","OBJECT_NAME":"STARLINK-3287","PERIOD":"90.313","MEAN_MOTION_DDOT":"0.0002415300000","SITE":"AFWTR"},{"OBJECT_ID":"2021-125T","BSTAR":"-0.00207090000000","INCLINATION":"53.2175","RCS_SIZE":null,"EPOCH":"2021-12-25T22:00:00.999936","DECAY_DATE":null,"FILE":"3250974","GP_ID":"192458799","PERIAPSIS":"266.044","ARG_OF_PERICENTER":"184.9032","ECCENTRICITY":"0.00337700","SEMIMAJOR_AXIS":"6666.693","MEAN_MOTION":"15.94913389","RA_OF_ASC_NODE":"329.9233","REV_AT_EPOCH":"163","TLE_LINE1":"1 50173U 21125T   21359.91667824 -.00872222  24611-3 -20709-2 0  9992","MEAN_MOTION_DDOT":"0.0002461100000","PERIOD":"90.287","SITE":"AFWTR","MEAN_MOTION_DOT":"-0.00872222","CLASSIFICATION_TYPE":"U","NORAD_CAT_ID":"50173","CENTER_NAME":"EARTH","MEAN_ANOMALY":"19.5495","OBJECT_TYPE":"PAYLOAD","TLE_LINE2":"2 50173  53.2175 329.9233 0033770 184.9032  19.5495 15.94913389  1634","COUNTRY_CODE":"US","OBJECT_NAME":"STARLINK-3289","TIME_SYSTEM":"UTC","LAUNCH_DATE":"2021-12-18","ELEMENT_SET_NO":"999","APOAPSIS":"311.071","EPHEMERIS_TYPE":"0","REF_FRAME":"TEME","MEAN_ELEMENT_THEORY":"SGP4"},{"SITE":"AFWTR","PERIOD":"90.310","MEAN_MOTION_DDOT":"0.0002414400000","CENTER_NAME":"EARTH","NORAD_CAT_ID":"50174","MEAN_ANOMALY":"11.3259","CLASSIFICATION_TYPE":"U","MEAN_MOTION_DOT":"-0.00864957","COUNTRY_CODE":"US","OBJECT_NAME":"STARLINK-3292","TLE_LINE2":"2 50174  53.2175 329.9463 0045209 181.9587  11.3259 15.94505010  1638","OBJECT_TYPE":"PAYLOAD","LAUNCH_DATE":"2021-12-18","TIME_SYSTEM":"UTC","APOAPSIS":"319.841","EPHEMERIS_TYPE":"0","ELEMENT_SET_NO":"999","MEAN_ELEMENT_THEORY":"SGP4","REF_FRAME":"TEME","BSTAR":"-0.00200550000000","OBJECT_ID":"2021-125U","RCS_SIZE":null,"INCLINATION":"53.2175","FILE":"3250974","DECAY_DATE":null,"EPOCH":"2021-12-25T22:00:00.999936","PERIAPSIS":"259.551","GP_ID":"192459978","ECCENTRICITY":"0.00452090","ARG_OF_PERICENTER":"181.9587","SEMIMAJOR_AXIS":"6667.831","MEAN_MOTION":"15.94505010","RA_OF_ASC_NODE":"329.9463","TLE_LINE1":"1 50174U 21125U   21359.91667824 -.00864957  24144-3 -20055-2 0  9994","REV_AT_EPOCH":"163"},{"BSTAR":"-0.00201200000000","OBJECT_ID":"2021-125V","INCLINATION":"53.2175","RCS_SIZE":null,"EPOCH":"2021-12-25T22:00:00.999936","DECAY_DATE":null,"FILE":"3250974","PERIAPSIS":"259.543","GP_ID":"192459742","ECCENTRICITY":"0.00456000","ARG_OF_PERICENTER":"181.8030","SEMIMAJOR_AXIS":"6668.084","MEAN_MOTION":"15.94414144","RA_OF_ASC_NODE":"329.9499","TLE_LINE1":"1 50175U 21125V   21359.91667824 -.00864914  24119-3 -20120-2 0  9993","REV_AT_EPOCH":"163","SITE":"AFWTR","MEAN_MOTION_DDOT":"0.0002411900000","PERIOD":"90.315","CLASSIFICATION_TYPE":"U","CENTER_NAME":"EARTH","NORAD_CAT_ID":"50175","MEAN_ANOMALY":"9.8248","MEAN_MOTION_DOT":"-0.00864914","COUNTRY_CODE":"US","OBJECT_NAME":"STARLINK-3291","OBJECT_TYPE":"PAYLOAD","TLE_LINE2":"2 50175  53.2175 329.9499 0045600 181.8030   9.8248 15.94414144  1632","LAUNCH_DATE":"2021-12-18","TIME_SYSTEM":"UTC","APOAPSIS":"320.356","EPHEMERIS_TYPE":"0","ELEMENT_SET_NO":"999","MEAN_ELEMENT_THEORY":"SGP4","REF_FRAME":"TEME"},{"EPHEMERIS_TYPE":"0","APOAPSIS":"320.002","ELEMENT_SET_NO":"999","MEAN_ELEMENT_THEORY":"SGP4","REF_FRAME":"TEME","LAUNCH_DATE":"2021-12-18","TIME_SYSTEM":"UTC","CLASSIFICATION_TYPE":"U","NORAD_CAT_ID":"50176","CENTER_NAME":"EARTH","MEAN_ANOMALY":"11.1043","MEAN_MOTION_DOT":"-0.00864810","OBJECT_NAME":"STARLINK-3293","COUNTRY_CODE":"US","OBJECT_TYPE":"PAYLOAD","TLE_LINE2":"2 50176  53.2175 329.9469 0045390 181.8714  11.1043 15.94490573  1634","SITE":"AFWTR","MEAN_MOTION_DDOT":"0.0002413300000","PERIOD":"90.311","TLE_LINE1":"1 50176U 21125W   21359.91667824 -.00864810  24133-3 -20051-2 0  9998","REV_AT_EPOCH":"163","ECCENTRICITY":"0.00453900","ARG_OF_PERICENTER":"181.8714","SEMIMAJOR_AXIS":"6667.871","RA_OF_ASC_NODE":"329.9469","MEAN_MOTION":"15.94490573","EPOCH":"2021-12-25T22:00:00.999936","DECAY_DATE":null,"FILE":"3250974","PERIAPSIS":"259.471","GP_ID":"192458564","BSTAR":"-0.00200510000000","OBJECT_ID":"2021-125W","INCLINATION":"53.2175","RCS_SIZE":null},{"EPOCH":"2021-12-25T22:00:00.999936","DECAY_DATE":null,"FILE":"3250974","GP_ID":"192459273","PERIAPSIS":"259.597","OBJECT_ID":"2021-125X","BSTAR":"-0.00201000000000","INCLINATION":"53.2175","RCS_SIZE":null,"REV_AT_EPOCH":"163","TLE_LINE1":"1 50177U 21125X   21359.91667824 -.00864748  24119-3 -20100-2 0  9998","ARG_OF_PERICENTER":"181.7968","ECCENTRICITY":"0.00453850","SEMIMAJOR_AXIS":"6667.995","RA_OF_ASC_NODE":"329.9489","MEAN_MOTION":"15.94446207","MEAN_MOTION_DOT":"-0.00864748","CLASSIFICATION_TYPE":"U","NORAD_CAT_ID":"50177","MEAN_ANOMALY":"10.3030","CENTER_NAME":"EARTH","OBJECT_TYPE":"PAYLOAD","TLE_LINE2":"2 50177  53.2175 329.9489 0045385 181.7968  10.3030 15.94446207  1633","COUNTRY_CODE":"US","OBJECT_NAME":"STARLINK-3282","MEAN_MOTION_DDOT":"0.0002411900000","PERIOD":"90.313","SITE":"AFWTR","ELEMENT_SET_NO":"999","APOAPSIS":"320.123","EPHEMERIS_TYPE":"0","REF_FRAME":"TEME","MEAN_ELEMENT_THEORY":"SGP4","TIME_SYSTEM":"UTC","LAUNCH_DATE":"2021-12-18"},{"REV_AT_EPOCH":"163","TLE_LINE1":"1 50178U 21125Y   21359.91667824 -.00864805  24162-3 -19925-2 0  9994","ARG_OF_PERICENTER":"181.9034","ECCENTRICITY":"0.00452630","SEMIMAJOR_AXIS":"6667.529","RA_OF_ASC_NODE":"329.9425","MEAN_MOTION":"15.94613190","FILE":"3250974","EPOCH":"2021-12-25T22:00:00.999936","DECAY_DATE":null,"GP_ID":"192459509","PERIAPSIS":"259.215","OBJECT_ID":"2021-125Y","BSTAR":"-0.00199250000000","RCS_SIZE":null,"INCLINATION":"53.2175","ELEMENT_SET_NO":"999","EPHEMERIS_TYPE":"0","APOAPSIS":"319.574","REF_FRAME":"TEME","MEAN_ELEMENT_THEORY":"SGP4","TIME_SYSTEM":"UTC","LAUNCH_DATE":"2021-12-18","MEAN_MOTION_DOT":"-0.00864805","CENTER_NAME":"EARTH","NORAD_CAT_ID":"50178","MEAN_ANOMALY":"13.1935","CLASSIFICATION_TYPE":"U","TLE_LINE2":"2 50178  53.2175 329.9425 0045263 181.9034  13.1935 15.94613190  1637","OBJECT_TYPE":"PAYLOAD","COUNTRY_CODE":"US","OBJECT_NAME":"STARLINK-3284","PERIOD":"90.304","MEAN_MOTION_DDOT":"0.0002416200000","SITE":"AFWTR"},{"REV_AT_EPOCH":"163","TLE_LINE1":"1 50179U 21125Z   21359.91667824 -.00864820  24129-3 -20095-2 0  9995","SEMIMAJOR_AXIS":"6667.914","MEAN_MOTION":"15.94475295","RA_OF_ASC_NODE":"329.9476","ARG_OF_PERICENTER":"181.9330","ECCENTRICITY":"0.00451040","GP_ID":"192460213","PERIAPSIS":"259.704","FILE":"3250974","EPOCH":"2021-12-25T22:00:00.999936","DECAY_DATE":null,"RCS_SIZE":null,"INCLINATION":"53.2175","OBJECT_ID":"2021-125Z","BSTAR":"-0.00200950000000","REF_FRAME":"TEME","MEAN_ELEMENT_THEORY":"SGP4","ELEMENT_SET_NO":"999","APOAPSIS":"319.854","EPHEMERIS_TYPE":"0","TIME_SYSTEM":"UTC","LAUNCH_DATE":"2021-12-18","TLE_LINE2":"2 50179  53.2175 329.9476 0045104 181.9330  10.7729 15.94475295  1633","OBJECT_TYPE":"PAYLOAD","OBJECT_NAME":"STARLINK-3283","COUNTRY_CODE":"US","MEAN_MOTION_DOT":"-0.00864820","NORAD_CAT_ID":"50179","CENTER_NAME":"EARTH","MEAN_ANOMALY":"10.7729","CLASSIFICATION_TYPE":"U","PERIOD":"90.312","MEAN_MOTION_DDOT":"0.0002412900000","SITE":"AFWTR"},{"BSTAR":"-0.00199620000000","OBJECT_ID":"2021-125AA","RCS_SIZE":null,"INCLINATION":"53.2175","FILE":"3250974","EPOCH":"2021-12-25T22:00:00.999936","DECAY_DATE":null,"PERIAPSIS":"259.136","GP_ID":"192459037","ECCENTRICITY":"0.00456890","ARG_OF_PERICENTER":"181.7976","RA_OF_ASC_NODE":"329.9454","SEMIMAJOR_AXIS":"6667.735","MEAN_MOTION":"15.94539281","TLE_LINE1":"1 50180U 21125AA  21359.91667824 -.00864536  24131-3 -19962-2 0  9995","REV_AT_EPOCH":"163","SITE":"AFWTR","PERIOD":"90.308","MEAN_MOTION_DDOT":"0.0002413100000","NORAD_CAT_ID":"50180","MEAN_ANOMALY":"11.8513","CENTER_NAME":"EARTH","CLASSIFICATION_TYPE":"U","MEAN_MOTION_DOT":"-0.00864536","OBJECT_NAME":"STARLINK-3265","COUNTRY_CODE":"US","TLE_LINE2":"2 50180  53.2175 329.9454 0045689 181.7976  11.8513 15.94539281  1632","OBJECT_TYPE":"PAYLOAD","LAUNCH_DATE":"2021-12-18","TIME_SYSTEM":"UTC","EPHEMERIS_TYPE":"0","APOAPSIS":"320.065","ELEMENT_SET_NO":"999","MEAN_ELEMENT_THEORY":"SGP4","REF_FRAME":"TEME"},{"RCS_SIZE":null,"INCLINATION":"53.2175","BSTAR":"-0.00200040000000","OBJECT_ID":"2021-125AB","PERIAPSIS":"259.465","GP_ID":"192458800","FILE":"3250974","DECAY_DATE":null,"EPOCH":"2021-12-25T22:00:00.999936","SEMIMAJOR_AXIS":"6667.655","RA_OF_ASC_NODE":"329.9443","MEAN_MOTION":"15.94567988","ECCENTRICITY":"0.00450770","ARG_OF_PERICENTER":"181.8951","TLE_LINE1":"1 50181U 21125AB  21359.91667824 -.00865282  24175-3 -20004-2 0  9992","REV_AT_EPOCH":"163","SITE":"AFWTR","PERIOD":"90.307","MEAN_MOTION_DDOT":"0.0002417500000","COUNTRY_CODE":"US","OBJECT_NAME":"STARLINK-3285","TLE_LINE2":"2 50181  53.2175 329.9443 0045077 181.8951  12.3873 15.94567988  1636","OBJECT_TYPE":"PAYLOAD","NORAD_CAT_ID":"50181","CENTER_NAME":"EARTH","MEAN_ANOMALY":"12.3873","CLASSIFICATION_TYPE":"U","MEAN_MOTION_DOT":"-0.00865282","LAUNCH_DATE":"2021-12-18","TIME_SYSTEM":"UTC","MEAN_ELEMENT_THEORY":"SGP4","REF_FRAME":"TEME","EPHEMERIS_TYPE":"0","APOAPSIS":"319.576","ELEMENT_SET_NO":"999"}];
